ADRAS-J                 
1 58992U 24034A   24282.84413635  .00012563  00000+0  11086-2 0  9992
2 58992  98.2273 261.2259 0044398  37.0892 323.3382 14.95783935 34847
